[{"OBJECT_NAME":"STARLINK-32569","OBJECT_ID":"2024-202Y","EPOCH":"2026-03-09T11:57:02.315808","MEAN_MOTION":15.27573246,"ECCENTRICITY":0.00010576,"INCLINATION":42.9979,"RA_OF_ASC_NODE":239.468,"ARG_OF_PERICENTER":268.5924,"MEAN_ANOMALY":91.4806,"EPHEMERIS_TYPE":0,"CLASSIFICATION_TYPE":"U","NORAD_CAT_ID":61867,"ELEMENT_SET_NO":999,"REV_AT_EPOCH":7530,"BSTAR":6.799938e-6,"MEAN_MOTION_DOT":-7.5e-7,"MEAN_MOTION_DDOT":0},{"OBJECT_NAME":"FLOCK 4G-25","OBJECT_ID":"2025-009AP","EPOCH":"2026-03-09T17:53:50.680608","MEAN_MOTION":15.27424196,"ECCENTRICITY":8.276e-5,"INCLINATION":97.4049,"RA_OF_ASC_NODE":151.4141,"ARG_OF_PERICENTER":316.3151,"MEAN_ANOMALY":43.8023,"EPHEMERIS_TYPE":0,"CLASSIFICATION_TYPE":"U","NORAD_CAT_ID":62646,"ELEMENT_SET_NO":999,"REV_AT_EPOCH":6373,"BSTAR":0.00038902475,"MEAN_MOTION_DOT":0.00010373,"MEAN_MOTION_DDOT":0}]
